ONEWEB-0235             
1 48771U 21045E   25269.58966502  .00000008  00000+0 -12627-4 0  9994
2 48771  87.9006 311.7885 0001450 107.6897 252.4392 13.15549529209721
ONEWEB-0242             
1 48772U 21045F   25269.65936078  .00000028  00000+0  40930-4 0  9997
2 48772  87.9012 311.7622 0001630  93.7502 266.3815 13.15549769209771
ONEWEB-0241             
1 48773U 21045G   25269.64669340  .00000074  00000+0  16319-3 0  9996
2 48773  87.8995 311.8107 0001705 110.8292 249.3021 13.15549581209682
ONEWEB-0243             
1 48774U 21045H   25269.60232032 -.00000623  00000+0 -16880-2 0  9991
2 48774  87.9011 311.8236 0001407  97.9091 262.2199 13.15549613209706
ONEWEB-0222             
1 48775U 21045J   25269.66175728 -.00000033  00000+0 -12209-3 0  9993
2 48775  87.9011 311.7636 0001732 100.0242 260.1083 13.15546519209751
ONEWEB-0244             
1 48776U 21045K   25269.61182235 -.00003432  00000+0 -91516-2 0  9993
2 48776  87.9016 311.7583 0002053  96.0916 264.0448 13.15559314210316
ONEWEB-0247             
1 48777U 21045L   25269.68471894 -.00000109  00000+0 -32350-3 0  9993
2 48777  87.9001 311.8094 0000906 110.9615 249.1612 13.15546576209766
ONEWEB-0245             
1 48778U 21045M   25269.67997768 -.00000238  00000+0 -66527-3 0  9992
2 48778  87.9003 311.7742 0001889 102.5885 257.5457 13.15547227209736
